[{"OBJECT_NAME":"STARLINK-2257","OBJECT_ID":"2021-018A","EPOCH":"2026-03-09T17:25:30.330336","MEAN_MOTION":15.30195877,"ECCENTRICITY":0.0001224,"INCLINATION":53.1595,"RA_OF_ASC_NODE":245.1686,"ARG_OF_PERICENTER":89.9599,"MEAN_ANOMALY":270.1542,"EPHEMERIS_TYPE":0,"CLASSIFICATION_TYPE":"U","NORAD_CAT_ID":47787,"ELEMENT_SET_NO":999,"REV_AT_EPOCH":27669,"BSTAR":-2.2394526e-5,"MEAN_MOTION_DOT":-1.022e-5,"MEAN_MOTION_DDOT":0},{"OBJECT_NAME":"YAOGAN-36 02B","OBJECT_ID":"2022-133B","EPOCH":"2026-03-09T22:42:31.775904","MEAN_MOTION":15.30199518,"ECCENTRICITY":0.00056841,"INCLINATION":34.9983,"RA_OF_ASC_NODE":22.5268,"ARG_OF_PERICENTER":273.0351,"MEAN_ANOMALY":86.9715,"EPHEMERIS_TYPE":0,"CLASSIFICATION_TYPE":"U","NORAD_CAT_ID":54043,"ELEMENT_SET_NO":999,"REV_AT_EPOCH":18962,"BSTAR":0.00051218814,"MEAN_MOTION_DOT":0.00015352,"MEAN_MOTION_DDOT":0}]
